NORAD_CAT_ID,OBJECT_NAME,OBJECT_TYPE,EPOCH,MEAN_MOTION,ECCENTRICITY,INCLINATION,RA_OF_ASC_NODE,ARG_OF_PERICENTER,MEAN_ANOMALY,BSTAR,MEAN_MOTION_DOT,MEAN_MOTION_DDOT,TLE_LINE0,TLE_LINE1,TLE_LINE2,SEMIMAJOR_AXIS,PERIOD,APOGEE,PERIGEE,DECAYED
56767.0,STARLINK-6197,PAYLOAD,2024-04-09 23:10:01,14.98321983,0.0002883,69.9992,326.2456,272.6196,87.4633,0.00011344,1.261e-05,0.0,0 STARLINK-6197,1 56767U 23078A   24100.96529160  .00001261  00000-0  11344-3 0  9992,2 56767  69.9992 326.2456 0002883 272.6196  87.4633 14.98321983 47784,6950.218,96.108,574.086,570.079,0.0
56767.0,STARLINK-6197,PAYLOAD,2024-04-10 13:35:13,14.98331679,0.0002997,69.999,324.7296,271.302,88.7795,2.1471e-05,1.63e-06,0.0,0 STARLINK-6197,1 56767U 23078A   24101.56612685  .00000163  00000-0  21471-4 0  9997,2 56767  69.9990 324.7296 0002997 271.3020  88.7795 14.98331679 47613,6950.188,96.107,574.136,569.97,0.0
56767.0,STARLINK-6197,PAYLOAD,2024-04-10 21:35:53,14.98360814,0.000317,69.9988,323.8874,266.8068,93.2729,-0.00045212,-5.488e-05,0.0,0 STARLINK-6197,1 56767U 23078A   24101.89992404 -.00005488  00000-0 -45212-3 0  9998,2 56767  69.9988 323.8874 0003170 266.8068  93.2729 14.98360814 47922,6950.098,96.105,574.166,569.759,0.0
56767.0,STARLINK-6197,PAYLOAD,2024-04-11 00:48:09,14.98333833,0.0002987,69.999,323.5506,269.8277,90.2539,1.2835e-05,6e-07,0.0,0 STARLINK-6197,1 56767U 23078A   24102.03344500  .00000060  00000-0  12835-4 0  9998,2 56767  69.9990 323.5506 0002987 269.8277  90.2539 14.98333833 47943,6950.181,96.107,574.122,569.97,0.0
56767.0,STARLINK-6197,PAYLOAD,2024-04-11 21:37:54,14.9832901,0.0002967,69.9989,321.3622,269.7481,90.3338,-2.2911e-05,-3.66e-06,0.0,0 STARLINK-6197,1 56767U 23078A   24102.90132867 -.00000366  00000-0 -22911-4 0  9992,2 56767  69.9989 321.3622 0002967 269.7481  90.3338 14.98329010 47816,6950.196,96.107,574.123,569.999,0.0
56767.0,STARLINK-6197,PAYLOAD,2024-04-12 00:50:10,14.98330306,0.0002959,69.9989,321.0255,269.8317,90.2503,-7.4686e-06,-1.82e-06,0.0,0 STARLINK-6197,1 56767U 23078A   24103.03484740 -.00000182  00000-0 -74686-5 0  9990,2 56767  69.9989 321.0255 0002959 269.8317  90.2503 14.98330306 48099,6950.192,96.107,574.114,570.0,0.0
56767.0,STARLINK-6197,PAYLOAD,2024-04-12 21:39:55,14.98332825,0.0002907,69.9989,318.8381,266.8722,93.2104,1.7484e-05,1.16e-06,0.0,0 STARLINK-6197,1 56767U 23078A   24103.90272391  .00000116  00000-0  17484-4 0  9990,2 56767  69.9989 318.8381 0002907 266.8722  93.2104 14.98332825 47966,6950.184,96.107,574.07,570.029,0.0
56767.0,STARLINK-6197,PAYLOAD,2024-04-13 00:52:11,14.98333514,0.0002902,69.9989,318.5014,267.0111,93.0716,2.4209e-05,1.96e-06,0.0,0 STARLINK-6197,1 56767U 23078A   24104.03624301  .00000196  00000-0  24209-4 0  9998,2 56767  69.9989 318.5014 0002902 267.0111  93.0716 14.98333514 48241,6950.182,96.107,574.064,570.03,0.0
56767.0,STARLINK-6197,PAYLOAD,2024-04-13 20:05:48,14.98325899,0.0002788,69.9994,316.4808,260.9391,99.1452,-1.6455e-06,-1.13e-06,0.0,0 STARLINK-6197,1 56767U 23078A   24104.83736831 -.00000113  00000-0 -16455-5 0  9994,2 56767  69.9994 316.4808 0002788 260.9391  99.1452 14.98325899 48363,6950.206,96.107,574.008,570.133,0.0
56767.0,STARLINK-6197,PAYLOAD,2024-04-13 21:41:56,14.9832494,0.0002805,69.9994,316.3126,261.5573,98.5268,-1.3766e-05,-2.57e-06,0.0,0 STARLINK-6197,1 56767U 23078A   24104.90412946 -.00000257  00000-0 -13766-4 0  9990,2 56767  69.9994 316.3126 0002805 261.5573  98.5268 14.98324940 48111,6950.209,96.107,574.023,570.124,0.0
56767.0,STARLINK-6197,PAYLOAD,2024-04-14 20:07:49,14.9833382,0.0002921,69.9992,313.9554,259.7466,100.3363,8.203e-06,5e-08,0.0,0 STARLINK-6197,1 56767U 23078A   24105.83876246  .00000005  00000-0  82030-5 0  9990,2 56767  69.9992 313.9554 0002921 259.7466 100.3363 14.98333820 48515,6950.181,96.107,574.076,570.016,0.0
56767.0,STARLINK-6197,PAYLOAD,2024-04-14 21:43:57,14.98334373,0.0002901,69.9992,313.7872,258.7719,101.3114,1.5995e-05,9.8e-07,0.0,0 STARLINK-6197,1 56767U 23078A   24105.90552168  .00000098  00000-0  15995-4 0  9999,2 56767  69.9992 313.7872 0002901 258.7719 101.3114 14.98334373 48265,6950.179,96.107,574.061,570.028,0.0
56767.0,STARLINK-6197,PAYLOAD,2024-04-15 13:45:17,14.98330121,0.0002995,69.9987,312.1032,264.9547,95.127,4.8096e-05,4.81e-06,0.0,0 STARLINK-6197,1 56767U 23078A   24106.57312252  .00000481  00000-0  48096-4 0  9995,2 56767  69.9987 312.1032 0002995 264.9547  95.1270 14.98330121 48362,6950.193,96.107,574.139,569.976,0.0
56767.0,STARLINK-6197,PAYLOAD,2024-04-15 20:09:50,14.98329244,0.0003023,69.9987,311.4299,264.9553,95.1261,3.2582e-05,2.96e-06,0.0,0 STARLINK-6197,1 56767U 23078A   24106.84016340  .00000296  00000-0  32582-4 0  9991,2 56767  69.9987 311.4299 0003023 264.9553  95.1261 14.98329244 48666,6950.195,96.107,574.161,569.959,0.0
56767.0,STARLINK-6197,PAYLOAD,2024-04-15 21:45:58,14.98329448,0.000308,69.9986,311.2614,271.8229,88.2578,3.3633e-05,3.08e-06,0.0,0 STARLINK-6197,1 56767U 23078A   24106.90692372  .00000308  00000-0  33633-4 0  9995,2 56767  69.9986 311.2614 0003080 271.8229  88.2578 14.98329448 48417,6950.195,96.107,574.2,569.919,0.0
56767.0,STARLINK-6197,PAYLOAD,2024-04-16 13:47:18,14.98330945,0.0003042,69.9986,309.5777,272.0146,88.0665,-3.1716e-05,-4.71e-06,0.0,0 STARLINK-6197,1 56767U 23078A   24107.57452436 -.00000471  00000-0 -31716-4 0  9997,2 56767  69.9986 309.5777 0003042 272.0146  88.0665 14.98330945 48516,6950.19,96.107,574.169,569.941,0.0
56767.0,STARLINK-6197,PAYLOAD,2024-04-16 20:11:50,14.98333156,0.0003006,69.9985,308.9042,271.8523,88.2291,9.6994e-07,-8.1e-07,0.0,0 STARLINK-6197,1 56767U 23078A   24107.84156173 -.00000081  00000-0  96994-6 0  9993,2 56767  69.9985 308.9042 0003006 271.8523  88.2291 14.98333156 48816,6950.183,96.107,574.137,569.959,0.0
56767.0,STARLINK-6197,PAYLOAD,2024-04-16 21:47:58,14.98336476,0.0002981,69.9984,308.7359,271.8307,88.2511,4.0012e-05,3.84e-06,0.0,0 STARLINK-6197,1 56767U 23078A   24107.90831828  .00000384  00000-0  40012-4 0  9990,2 56767  69.9984 308.7359 0002981 271.8307  88.2511 14.98336476 48560,6950.173,96.107,574.11,569.966,0.0
56767.0,STARLINK-6197,PAYLOAD,2024-04-17 13:49:20,14.98329816,0.000241,69.9988,307.0532,278.7378,81.3508,-0.00014647,-1.84e-05,0.0,0 STARLINK-6197,1 56767U 23078A   24108.57592924 -.00001840  00000-0 -14647-3 0  9999,2 56767  69.9988 307.0532 0002410 278.7378  81.3508 14.98329816 48661,6950.193,96.107,573.733,570.383,0.0
56767.0,STARLINK-6197,PAYLOAD,2024-04-17 20:13:53,14.98306898,0.0002426,69.999,306.3792,274.7266,85.3615,0.00016993,1.934e-05,0.0,0 STARLINK-6197,1 56767U 23078A   24108.84297501  .00001934  00000-0  16993-3 0  9990,2 56767  69.9990 306.3792 0002426 274.7266  85.3615 14.98306898 48964,6950.264,96.108,573.815,570.443,0.0
56767.0,STARLINK-6197,PAYLOAD,2024-04-17 21:50:01,14.98310705,0.0002534,69.9989,306.2108,276.5783,83.5087,9.0771e-05,9.9e-06,0.0,0 STARLINK-6197,1 56767U 23078A   24108.90973573  .00000990  00000-0  90771-4 0  9995,2 56767  69.9989 306.2108 0002534 276.5783  83.5087 14.98310705 48714,6950.253,96.108,573.879,570.356,0.0
56767.0,STARLINK-6197,PAYLOAD,2024-04-18 12:15:12,14.98333543,0.0002823,69.9985,304.6953,269.3351,90.7484,2.2703e-05,1.78e-06,0.0,0 STARLINK-6197,1 56767U 23078A   24109.51056313  .00000178  00000-0  22703-4 0  9995,2 56767  69.9985 304.6953 0002823 269.3351  90.7484 14.98333543 49067,6950.182,96.107,574.009,570.085,0.0
56767.0,STARLINK-6197,PAYLOAD,2024-04-18 13:51:20,14.98335152,0.0002846,69.9984,304.5272,269.7721,90.3112,4.0972e-05,3.96e-06,0.0,0 STARLINK-6197,1 56767U 23078A   24109.57732127  .00000396  00000-0  40972-4 0  9995,2 56767  69.9984 304.5272 0002846 269.7721  90.3112 14.98335152 48813,6950.177,96.107,574.02,570.064,0.0
56767.0,STARLINK-6197,PAYLOAD,2024-04-18 21:52:00,14.98336402,0.000287,69.9986,303.686,266.6762,93.4069,4.0851e-05,3.95e-06,0.0,0 STARLINK-6197,1 56767U 23078A   24109.91111928  .00000395  00000-0  40851-4 0  9998,2 56767  69.9986 303.6860 0002870 266.6762  93.4069 14.98336402 48865,6950.173,96.107,574.033,570.043,0.0
56767.0,STARLINK-6197,PAYLOAD,2024-04-19 13:53:21,14.98325839,0.0002971,69.9985,302.0022,263.4448,96.6373,7.6165e-05,8.16e-06,0.0,0 STARLINK-6197,1 56767U 23078A   24110.57872387  .00000816  00000-0  76165-4 0  9990,2 56767  69.9985 302.0022 0002971 263.4448  96.6373 14.98325839 48961,6950.206,96.107,574.136,570.006,0.0
56767.0,STARLINK-6197,PAYLOAD,2024-04-19 20:17:53,14.98330936,0.0002864,69.9984,301.329,263.4306,96.6527,0.00013161,1.478e-05,0.0,0 STARLINK-6197,1 56767U 23078A   24110.84575944  .00001478  00000-0  13161-3 0  9990,2 56767  69.9984 301.3290 0002864 263.4306  96.6527 14.98330936 49262,6950.19,96.107,574.046,570.064,0.0
56767.0,STARLINK-6197,PAYLOAD,2024-04-19 21:54:01,14.98332399,0.0002846,69.9985,301.1608,262.9484,97.1351,0.00014608,1.651e-05,0.0,0 STARLINK-6197,1 56767U 23078A   24110.91251801  .00001651  00000-0  14608-3 0  9991,2 56767  69.9985 301.1608 0002846 262.9484  97.1351 14.98332399 49014,6950.185,96.107,574.028,570.072,0.0
56767.0,STARLINK-6197,PAYLOAD,2024-04-20 13:55:22,14.98336311,0.0002533,69.9996,299.479,252.9925,107.0957,1.737e-05,1.14e-06,0.0,0 STARLINK-6197,1 56767U 23078A   24111.58011710  .00000114  00000-0  17370-4 0  9991,2 56767  69.9996 299.4790 0002533 252.9925 107.0957 14.98336311 49111,6950.173,96.107,573.799,570.278,0.0
56767.0,STARLINK-6197,PAYLOAD,2024-04-20 20:19:54,14.983344,0.0002569,69.9996,298.8058,252.8635,107.2243,-6.7132e-06,-1.73e-06,0.0,0 STARLINK-6197,1 56767U 23078A   24111.84715788 -.00000173  00000-0 -67132-5 0  9995,2 56767  69.9996 298.8058 0002569 252.8635 107.2243 14.98334400 49417,6950.179,96.107,573.83,570.259,0.0
56767.0,STARLINK-6197,PAYLOAD,2024-04-21 13:57:23,14.98312887,0.0002664,69.999,296.9526,260.6816,99.4042,0.00014847,1.678e-05,0.0,0 STARLINK-6197,1 56767U 23078A   24112.58152518  .00001678  00000-0  14847-3 0  9995,2 56767  69.9990 296.9526 0002664 260.6816  99.4042 14.98312887 49261,6950.246,96.108,573.962,570.259,0.0
